SL-3 R/B                
1 19046U 88032B   17286.56011472 -.00000292  00000-0 -17179-4 0  9995
2 19046  97.5136 329.9761 0036985 292.5351  67.1961 15.02291549590123
SL-16 R/B               
1 19120U 88039B   17286.57696808  .00000123  00000-0  81432-4 0  9992
2 19120  71.0142  74.7692 0021935   0.7273 359.3880 14.19177293522913
COSMOS 1953             
1 19210U 88050A   17286.54932748  .00000356  00000-0  22766-4 0  9991
2 19210  82.5147 278.6159 0012714 210.5771 149.4717 15.05387184574515
SL-8 R/B                
1 19257U 88053B   17286.61111417  .00000062  00000-0  29470-4 0  9998
2 19257  74.0510 358.8304 0021195 223.0701 240.9710 14.37376343535509
COSMOS 1975             
1 19573U 88093A   17286.41320207  .00000680  00000-0  46790-4 0  9990
2 19573  82.5215 231.0817 0012857 254.9031 105.0773 15.04291384556443
SL-14 R/B               
1 19574U 88093B   17286.46419119  .00000131  00000-0  13013-4 0  9990
2 19574  82.5347  34.4819 0023209  87.0948 326.0481 14.83237724566987
SL-16 R/B               
1 19650U 88102B   17286.56712255 -.00000163  00000-0 -58461-4 0  9997
2 19650  70.9968 126.1777 0014433 353.5505   6.5430 14.15764352492476
INTERCOSMOS 24          
1 20261U 89080A   17286.56042423  .00000396  00000-0  11344-3 0  9990
2 20261  82.5904 293.2439 1203958 183.7138 175.4367 12.55917561281233
SL-14 R/B               
1 20262U 89080C   17286.58919773  .00000059  00000-0  14492-4 0  9998
2 20262  82.5953 340.2739 1237116 346.7087  10.3955 12.48874164276924
DELTA 1 R/B             
1 20323U 89089B   17286.61456094  .00000097  00000-0  34090-4 0  9999
2 20323  97.1165 213.8282 0073335  68.4620 292.4373 14.48219717451334
DELTA 2 R/B(1)          
1 20453U 90008B   17286.38473131  .00002039  00000-0  11931-3 0  9997
2 20453  35.6242 255.6885 0287152  71.5159 291.6536 14.83621160465762
COSMOS 2058             
1 20465U 90010A   17286.61947021  .00000375  00000-0  29772-4 0  9997
2 20465  82.4877 133.9963 0014093 254.9936 104.9727 14.97591928481956
SL-14 R/B               
1 20466U 90010B   17286.51962914  .00000114  00000-0  11661-4 0  9994
2 20466  82.5013 261.8762 0019366 313.1149  46.8444 14.81298004473953
SL-14 R/B               
1 20511U 90018B   17286.37554237  .00000107  00000-0  11030-4 0  9994
2 20511  82.5258 204.0436 0019076  85.8192  53.4300 14.79956231489548
HST                     
1 20580U 90037B   17286.49131769  .00000810  00000-0  38948-4 0  9993
2 20580  28.4700 305.7354 0002748  11.5487 113.1243 15.08884768308081
SL-16 R/B               
1 20625U 90046B   17286.50828163 -.00000242  00000-0 -10087-3 0  9990
2 20625  70.9983 260.8043 0016860 285.3503  74.5756 14.14622952414563
COSMOS 2084             
1 20663U 90055A   17286.28343040  .00000375  00000-0  48840-4 0  9997
2 20663  62.7924 193.9377 0138596 101.5860 260.0829 14.91683325477413
SL-6 R/B(2)             
1 20666U 90055D   17286.58596719  .00000281  00000-0  41968-4 0  9996
2 20666  62.7828 111.4214 0123282 121.0237 240.3032 14.92013425479378
SL-8 R/B                
1 20775U 90078B   17286.55378218  .00004445  00000-0  22272-3 0  9993
2 20775  82.9276 311.1388 0585368 337.6325  20.0244 14.31282538365694
SL-8 R/B                
1 21088U 91006B   17286.57900435  .00000155  00000-0  14157-3 0  9994
2 21088  82.9388 292.2213 0022255 352.6593 126.8236 13.77071631341629
OKEAN-3                 
1 21397U 91039A   17286.58852142  .00000465  00000-0  42587-4 0  9998
2 21397  82.5249  25.9374 0017542 196.6603 163.4043 14.92558493406386
COSMOS 2151             
1 21422U 91042A   17286.58263035  .00000246  00000-0  21781-4 0  9998
2 21422  82.4986 133.7924 0012762 258.5061 101.4726 14.91874686405075
SL-14 R/B               
1 21423U 91042B   17286.33357232  .00000107  00000-0  11170-4 0  9992
2 21423  82.4964 211.0035 0016538 219.7952 140.2049 14.79708761399019
ERS-1                   
1 21574U 91050A   17286.44674885  .00000076  00000-0  39688-4 0  9995
2 21574  98.4713 231.7888 0032424 323.8084  36.0908 14.37613732374594
ARIANE 40 R/B           
1 21610U 91050F   17286.22885984  .00000032  00000-0  23912-4 0  9991
2 21610  98.5917 343.4298 0002330 327.1670  73.6371 14.40812413377112
INTERCOSMOS 25          
1 21819U 91086A   17286.55939773  .00001090  00000-0  21293-3 0  9997
2 21819  82.5745 351.8884 1522273 194.9844 160.0876 12.04660849126515
SL-14 R/B               
1 21820U 91086B   17286.48032600  .00000135  00000-0  21607-4 0  9993
2 21820  82.5632  48.7018 1577437  27.8753 339.8439 11.93337980120898
SL-8 R/B                
1 21876U 92008B   17286.45525274  .00000031  00000-0  15950-4 0  9999
2 21876  82.9303  29.3063 0035966  65.2993 344.0274 13.75608203287418
SL-8 R/B                
1 21938U 92020B   17286.59081791 -.00000070  00000-0 -88368-4 0  9996
2 21938  82.9264 272.5485 0028259 219.7335 278.8102 13.75253329279269
SL-16 R/B               
1 22220U 92076B   17286.34604888 -.00000264  00000-0 -10857-3 0  9995
2 22220  71.0001 170.5313 0010521  93.1993  27.9142 14.16421080287179
SL-16 R/B               
1 22285U 92093B   17286.57326063  .00000277  00000-0  16771-3 0  9999
2 22285  71.0217 323.9382 0006143 294.3104  65.7377 14.15014469279004
COSMOS 2228             
1 22286U 92094A   17286.49183756  .00000315  00000-0  31511-4 0  9995
2 22286  82.5183 262.5428 0022940  88.9845 271.4001 14.87853566340080
SL-16 R/B               
1 22566U 93016B   17286.12598276 -.00000258  00000-0 -10887-3 0  9998
2 22566  71.0074 179.3639 0012169 306.3675  53.6324 14.14948862267947
COSMOS 2242             
1 22626U 93024A   17286.51264123  .00000312  00000-0  31332-4 0  9996
2 22626  82.5190 290.2621 0020681  88.5101 271.8485 14.87715691323740
SL-16 R/B               
1 22803U 93059B   17286.55761777 -.00000224  00000-0 -87778-4 0  9991
2 22803  70.9924   0.0040 0018431 212.2917 147.7079 14.16780472244794
ARIANE 40 R/B           
1 22830U 93061H   17286.61308619 -.00000044  00000-0  97423-6 0  9992
2 22830  98.8803 304.7017 0009988 305.5552  54.4698 14.31412126254938
COSMOS 2278             
1 23087U 94023A   17286.57631245 -.00000190  00000-0 -75460-4 0  9993
2 23087  71.0501 111.5415 0007807  20.7488 339.3949 14.13747645210987
SL-16 R/B               
1 23088U 94023B   17286.57025787 -.00000093  00000-0 -23333-4 0  9996
2 23088  71.0013  33.5859 0005594 275.4467  84.6017 14.14656060212011
SL-16 R/B               
1 23343U 94074B   17286.59142509 -.00000002  00000-0  72966-5 0  9996
2 23343  98.1412 324.7780 0008032  59.6761  55.6990 14.76712363234092
SL-16 R/B               
1 23405U 94077B   17286.52926774 -.00000162  00000-0 -58593-4 0  9992
2 23405  70.9830 326.5859 0002301 200.3350 159.7682 14.15197549182005
ERS-2                   
1 23560U 95021A   17286.59421899  .00002584  00000-0  12017-3 0  9997
2 23560  98.5601 294.9201 0002253 259.3150 100.7828 15.21095083193352
ARIANE 40+ R/B          
1 23561U 95021B   17286.58023715  .00000055  00000-0  33820-4 0  9999
2 23561  98.7971 290.5264 0005874 269.2420 198.9746 14.37836321178049
SL-16 R/B               
1 23705U 95058B   17286.07473619  .00000240  00000-0  14792-3 0  9997
2 23705  71.0203 141.7016 0010761 123.8975 236.3173 14.15100740133568
SL-16 R/B               
1 24298U 96051B   17286.13377314 -.00000126  00000-0 -41614-4 0  9990
2 24298  70.8483 173.5499 0014931 356.9476   3.1550 14.12487992 88471
ORBVIEW 2 (SEASTAR)     
1 24883U 97037A   17286.36570553  .00000079  00000-0  44629-4 0  9994
2 24883  98.5495  33.4984 0003441 110.7493 249.4060 14.33414914 68581
SL-16 R/B               
1 25400U 98043G   17286.49293324  .00000016  00000-0  24700-4 0  9999
2 25400  98.5006 230.9994 0009046 315.1515  44.8933 14.25420101  1694
SL-16 R/B               
1 25407U 98045B   17286.07314283 -.00000223  00000-0 -89177-4 0  9991
2 25407  71.0110 153.7002 0007192   9.3146 350.8109 14.15769465992868
ISS (ZARYA)             
1 25544U 98067A   17286.80824110  .00003561  00000-0  60938-4 0  9993
2 25544  51.6419 166.9874 0004581  20.3328  23.4529 15.54163293 80209
SL-8 R/B                
1 25723U 99022C   17286.40296696  .00011811  00000-0  17251-3 0  9998
2 25723  48.4151 256.3706 0009763 246.0914 113.9009 15.55950916 24896
CZ-4B R/B               
1 25732U 99025C   17286.62107762 -.00000012  00000-0  16403-4 0  9991
2 25732  98.9959 289.8282 0038320 113.7674 352.4911 14.17638141953316
OKEAN-O                 
1 25860U 99039A   17286.53449643  .00000097  00000-0  21525-4 0  9998
2 25860  98.1979 273.1003 0001821  96.6581 263.4835 14.76504364981198
SL-16 R/B               
1 25861U 99039B   17286.55483201  .00000076  00000-0  17870-4 0  9994
2 25861  98.1202 258.7570 0016929  62.9224  52.3410 14.78436642983260
TERRA                   
1 25994U 99068A   17288.44535476  .00000168  00000-0  37297-4 0  9992
2 25994  98.1989   1.7124 0000757  72.1783 288.0110 14.57123886948182
ENVISAT                 
1 27386U 02009A   17286.54373731 -.00000007  00000-0  11253-4 0  9998
2 27386  98.2186 326.8025 0001196  85.4226 274.7100 14.37905326818088
IDEFIX & ARIANE 42P R/B 
1 27422U 02021B   17286.61102834 -.00000018  00000-0  87226-5 0  9991
2 27422  98.2370 280.3801 0011142 243.4647 116.5394 14.29257303805489
AQUA                    
1 27424U 02022A   17288.46445486  .00000229  00000-0  50842-4 0  9998
2 27424  98.2101 227.9996 0001816  80.9101 279.2816 14.57114340821793
CZ-4B R/B               
1 27432U 02024C   17286.55894580  .00000001  00000-0  23798-4 0  9998
2 27432  99.0027 260.8846 0051401  58.1038  52.2400 14.14051647795521
MIDORI II (ADEOS-II)    
1 27597U 02056A   17286.52529224  .00000090  00000-0  53635-4 0  9993
2 27597  98.3845 251.1450 0001390  39.1111 321.0171 14.27310052772305
H-2A R/B                
1 27601U 02056E   17286.29297434  .00000048  00000-0  32847-4 0  9993
2 27601  98.3644 349.9364 0071142 305.7539 104.1564 14.31802085774716
